{
    "links": {
        "self": "http://www.neowsapp.com/rest/v1/neo/3795099?api_key=iIulBulltgU6a56xZRHN4H3l9WmuAYTsLGpBGhQ2"
    },
    "id": "3795099",
    "neo_reference_id": "3795099",
    "name": "(2017 YV5)",
    "designation": "2017 YV5",
    "nasa_jpl_url": "http://ssd.jpl.nasa.gov/sbdb.cgi?sstr=3795099",
    "absolute_magnitude_h": 22.9,
    "estimated_diameter": {
        "kilometers": {
            "estimated_diameter_min": 0.0699125232,
            "estimated_diameter_max": 0.1563291544
        },
        "meters": {
            "estimated_diameter_min": 69.9125232246,
            "estimated_diameter_max": 156.3291544087
        },
        "miles": {
            "estimated_diameter_min": 0.0434416145,
            "estimated_diameter_max": 0.097138403
        },
        "feet": {
            "estimated_diameter_min": 229.3718026961,
            "estimated_diameter_max": 512.8909429502
        }
    },
    "is_potentially_hazardous_asteroid": false,
    "close_approach_data": [
        {
            "close_approach_date": "2017-11-13",
            "close_approach_date_full": "2017-Nov-13 07:58",
            "epoch_date_close_approach": 1510559880000,
            "relative_velocity": {
                "kilometers_per_second": "8.0503843181",
                "kilometers_per_hour": "28981.3835453079",
                "miles_per_hour": "18007.9046812498"
            },
            "miss_distance": {
                "astronomical": "0.1554595039",
                "lunar": "60.4737470171",
                "kilometers": "23256410.654696693",
                "miles": "14450863.4853846434"
            },
            "orbiting_body": "Earth"
        }
    ],
    "orbital_data": {
        "orbit_id": "3",
        "orbit_determination_date": "2018-01-14 06:59:46",
        "first_observation_date": "2017-12-24",
        "last_observation_date": "2018-01-10",
        "data_arc_in_days": 17,
        "observations_used": 31,
        "orbit_uncertainty": "8",
        "minimum_orbit_intersection": ".0445147",
        "jupiter_tisserand_invariant": "4.651",
        "epoch_osculation": "2458113.5",
        "eccentricity": ".3928186545059172",
        "semi_major_axis": "1.405061997611629",
        "inclination": "7.260441801211627",
        "ascending_node_longitude": "159.4007332821664",
        "orbital_period": "608.3333954024091",
        "perihelion_distance": ".8531274342124329",
        "perihelion_argument": "221.7269118637182",
        "aphelion_distance": "1.956996561010826",
        "perihelion_time": "2458048.257360588343",
        "mean_anomaly": "38.60933883575431",
        "mean_motion": ".5917807615376138",
        "equinox": "J2000",
        "orbit_class": {
            "orbit_class_type": "APO",
            "orbit_class_description": "Near-Earth asteroid orbits which cross the Earth’s orbit similar to that of 1862 Apollo",
            "orbit_class_range": "a (semi-major axis) > 1.0 AU; q (perihelion) < 1.017 AU"
        }
    },
    "is_sentry_object": false
}